[{"OBJECT_NAME":"ONEWEB-0444","OBJECT_ID":"2022-012S","EPOCH":"2026-03-09T21:46:56.234784","MEAN_MOTION":13.10372062,"ECCENTRICITY":0.00017804,"INCLINATION":87.8772,"RA_OF_ASC_NODE":56.0361,"ARG_OF_PERICENTER":86.9,"MEAN_ANOMALY":273.2331,"EPHEMERIS_TYPE":0,"CLASSIFICATION_TYPE":"U","NORAD_CAT_ID":51638,"ELEMENT_SET_NO":999,"REV_AT_EPOCH":19633,"BSTAR":-0.0019107609,"MEAN_MOTION_DOT":-6.54e-6,"MEAN_MOTION_DDOT":0},{"OBJECT_NAME":"FENGYUN 1C DEB","OBJECT_ID":"1999-025EYP","EPOCH":"2026-03-09T19:09:01.653984","MEAN_MOTION":13.40635008,"ECCENTRICITY":0.03603046,"INCLINATION":98.6854,"RA_OF_ASC_NODE":181.6853,"ARG_OF_PERICENTER":342.634,"MEAN_ANOMALY":16.2727,"EPHEMERIS_TYPE":0,"CLASSIFICATION_TYPE":"U","NORAD_CAT_ID":43358,"ELEMENT_SET_NO":999,"REV_AT_EPOCH":54897,"BSTAR":0.0017721435,"MEAN_MOTION_DOT":1.389e-5,"MEAN_MOTION_DDOT":0}]
